HIMAWARI-8              
1 40267U 14060A   24244.66761500 -.00000292  00000+0  00000+0 0  9999
2 40267   0.0214 206.9076 0000944 342.9076 171.5030  1.00271517 36196
